{"type": "FeatureCollection", "features": [ {"type": "Feature", "properties": {"norad_id": 38552, "name": "METEOSAT-10 (MSG-3)", "group": "weather", "lat": -1.8546383868983165, "lon": -92.80165953986956, "alt_km": 35784.321662241586, "timestamp": "2025-12-27T11:23:19.520439+00:00", "meta": {"OBJECT_NAME": "METEOSAT-10 (MSG-3)", "OBJECT_ID": "2012-035B", "EPOCH": "2025-12-26T23:18:23.522112", "MEAN_MOTION": 1.0026664, "ECCENTRICITY": 0.0001553, "INCLINATION": 4.2601, "RA_OF_ASC_NODE": 61.6826, "ARG_OF_PERICENTER": 264.1949, "MEAN_ANOMALY": 119.6815, "EPHEMERIS_TYPE": 0, "CLASSIFICATION_TYPE": "U", "NORAD_CAT_ID": 38552, "ELEMENT_SET_NO": 999, "REV_AT_EPOCH": 4913, "BSTAR": 0, "MEAN_MOTION_DOT": 1.4e-07, "MEAN_MOTION_DDOT": 0}, "tle": {"line1": "1 38552U 12035B   25360.97110558  .00000014  00000+0  00000+0 0  9999", "line2": "2 38552   4.2601  61.6826 0001553 264.1949 119.6815  1.00266640 49139"}}, "geometry": {"type": "Point", "coordinates": [-92.80165953986956, -1.8546383868983165]}}, {"type": "Feature", "properties": {"norad_id": 38771, "name": "METOP-B", "group": "weather", "lat": -24.18711549350916, "lon": -132.75128417368742, "alt_km": 826.0811214202349, "timestamp": "2025-12-27T11:23:19.520450+00:00", "meta": {"OBJECT_NAME": "METOP-B", "OBJECT_ID": "2012-049A", "EPOCH": "2025-12-27T03:40:22.452096", "MEAN_MOTION": 14.21413883, "ECCENTRICITY": 0.0003311, "INCLINATION": 98.6779, "RA_OF_ASC_NODE": 50.8661, "ARG_OF_PERICENTER": 114.4225, "MEAN_ANOMALY": 245.7298, "EPHEMERIS_TYPE": 0, "CLASSIFICATION_TYPE": "U", "NORAD_CAT_ID": 38771, "ELEMENT_SET_NO": 999, "REV_AT_EPOCH": 68882, "BSTAR": 9.0481e-05, "MEAN_MOTION_DOT": 1.54e-06, "MEAN_MOTION_DDOT": 0}, "tle": {"line1": "1 38771U 12049A   25361.15303764  .00000154  00000+0  90481-4 0  9993", "line2": "2 38771  98.6779  50.8661 0003311 114.4225 245.7298 14.21413883688821"}}, "geometry": {"type": "Point", "coordinates": [-132.75128417368742, -24.18711549350916]}}, {"type": "Feature", "properties": {"norad_id": 39216, "name": "INSAT-3D", "group": "weather", "lat": -1.096207596195614, "lon": 36.606759135159045, "alt_km": 35793.34301324195, "timestamp": "2025-12-27T11:23:19.520463+00:00", "meta": {"OBJECT_NAME": "INSAT-3D", "OBJECT_ID": "2013-038B", "EPOCH": "2025-12-27T01:00:38.527776", "MEAN_MOTION": 1.00273019, "ECCENTRICITY": 0.000198, "INCLINATION": 1.4799, "RA_OF_ASC_NODE": 84.8333, "ARG_OF_PERICENTER": 159.3491, "MEAN_ANOMALY": 356.3116, "EPHEMERIS_TYPE": 0, "CLASSIFICATION_TYPE": "U", "NORAD_CAT_ID": 39216, "ELEMENT_SET_NO": 999, "REV_AT_EPOCH": 4535, "BSTAR": 0, "MEAN_MOTION_DOT": -3.17e-06, "MEAN_MOTION_DDOT": 0}, "tle": {"line1": "1 39216U 13038B   25361.04211259 -.00000317  00000+0  00000+0 0  9997", "line2": "2 39216   1.4799  84.8333 0001980 159.3491 356.3116  1.00273019 45357"}}, "geometry": {"type": "Point", "coordinates": [36.606759135159045, -1.096207596195614]}}, {"type": "Feature", "properties": {"norad_id": 39260, "name": "FENGYUN 3C", "group": "weather", "lat": 31.07059362407286, "lon": 163.59181582196226, "alt_km": 827.3250309622908, "timestamp": "2025-12-27T11:23:19.520474+00:00", "meta": {"OBJECT_NAME": "FENGYUN 3C", "OBJECT_ID": "2013-052A", "EPOCH": "2025-12-27T05:36:05.128416", "MEAN_MOTION": 14.1570075, "ECCENTRICITY": 0.0015089, "INCLINATION": 98.4781, "RA_OF_ASC_NODE": 338.2062, "ARG_OF_PERICENTER": 154.4015, "MEAN_ANOMALY": 205.791, "EPHEMERIS_TYPE": 0, "CLASSIFICATION_TYPE": "U", "NORAD_CAT_ID": 39260, "ELEMENT_SET_NO": 999, "REV_AT_EPOCH": 63423, "BSTAR": 8.4474e-05, "MEAN_MOTION_DOT": 1.25e-06, "MEAN_MOTION_DDOT": 0}, "tle": {"line1": "1 39260U 13052A   25361.23339269  .00000125  00000+0  84474-4 0  9993", "line2": "2 39260  98.4781 338.2062 0015089 154.4015 205.7910 14.15700750634238"}}, "geometry": {"type": "Point", "coordinates": [163.59181582196226, 31.07059362407286]}}, {"type": "Feature", "properties": {"norad_id": 40069, "name": "METEOR-M 2", "group": "weather", "lat": 69.43110519385704, "lon": -44.96728698673001, "alt_km": 814.1040893510253, "timestamp": "2025-12-27T11:23:19.520485+00:00", "meta": {"OBJECT_NAME": "METEOR-M 2", "OBJECT_ID": "2014-037A", "EPOCH": "2025-12-27T04:17:49.246944", "MEAN_MOTION": 14.21392294, "ECCENTRICITY": 0.0005717, "INCLINATION": 98.4923, "RA_OF_ASC_NODE": 338.2112, "ARG_OF_PERICENTER": 165.1156, "MEAN_ANOMALY": 195.0191, "EPHEMERIS_TYPE": 0, "CLASSIFICATION_TYPE": "U", "NORAD_CAT_ID": 40069, "ELEMENT_SET_NO": 999, "REV_AT_EPOCH": 59488, "BSTAR": 0.00011434, "MEAN_MOTION_DOT": 2.08e-06, "MEAN_MOTION_DDOT": 0}, "tle": {"line1": "1 40069U 14037A   25361.17904221  .00000208  00000+0  11434-3 0  9992", "line2": "2 40069  98.4923 338.2112 0005717 165.1156 195.0191 14.21392294594888"}}, "geometry": {"type": "Point", "coordinates": [-44.96728698673001, 69.43110519385704]}}, {"type": "Feature", "properties": {"norad_id": 40267, "name": "HIMAWARI-8", "group": "weather", "lat": 0.0014639664207121547, "lon": 47.70055449556004, "alt_km": 35787.46295033481, "timestamp": "2025-12-27T11:23:19.520497+00:00", "meta": {"OBJECT_NAME": "HIMAWARI-8", "OBJECT_ID": "2014-060A", "EPOCH": "2025-12-26T08:33:59.245344", "MEAN_MOTION": 1.0027063, "ECCENTRICITY": 0.000101, "INCLINATION": 0.0427, "RA_OF_ASC_NODE": 196.506, "ARG_OF_PERICENTER": 108.6661, "MEAN_ANOMALY": 59.0936, "EPHEMERIS_TYPE": 0, "CLASSIFICATION_TYPE": "U", "NORAD_CAT_ID": 40267, "ELEMENT_SET_NO": 999, "REV_AT_EPOCH": 4102, "BSTAR": 0, "MEAN_MOTION_DOT": -2.54e-06, "MEAN_MOTION_DDOT": 0}, "tle": {"line1": "1 40267U 14060A   25360.35693571 -.00000254  00000+0  00000+0 0  9995", "line2": "2 40267   0.0427 196.5060 0001010 108.6661  59.0936  1.00270630 41029"}}, "geometry": {"type": "Point", "coordinates": [47.70055449556004, 0.0014639664207121547]}}, {"type": "Feature", "properties": {"norad_id": 40367, "name": "FENGYUN 2G", "group": "weather", "lat": -4.845226680542987, "lon": 6.449080914351374, "alt_km": 35788.05083790979, "timestamp": "2025-12-27T11:23:19.520509+00:00", "meta": {"OBJECT_NAME": "FENGYUN 2G", "OBJECT_ID": "2014-090A", "EPOCH": "2025-12-27T01:29:24.780768", "MEAN_MOTION": 1.00281225, "ECCENTRICITY": 0.0001825, "INCLINATION": 5.2014, "RA_OF_ASC_NODE": 74.9206, "ARG_OF_PERICENTER": 170.6218, "MEAN_ANOMALY": 331.9129, "EPHEMERIS_TYPE": 0, "CLASSIFICATION_TYPE": "U", "NORAD_CAT_ID": 40367, "ELEMENT_SET_NO": 999, "REV_AT_EPOCH": 4027, "BSTAR": 0, "MEAN_MOTION_DOT": -2.81e-06, "MEAN_MOTION_DDOT": 0}, "tle": {"line1": "1 40367U 14090A   25361.06209237 -.00000281  00000+0  00000+0 0  9990", "line2": "2 40367   5.2014  74.9206 0001825 170.6218 331.9129  1.00281225 40275"}}, "geometry": {"type": "Point", "coordinates": [6.449080914351374, -4.845226680542987]}}, {"type": "Feature", "properties": {"norad_id": 40732, "name": "METEOSAT-11 (MSG-4)", "group": "weather", "lat": -1.157243118951291, "lon": -83.80220237353535, "alt_km": 35785.09390034992, "timestamp": "2025-12-27T11:23:19.520521+00:00", "meta": {"OBJECT_NAME": "METEOSAT-11 (MSG-4)", "OBJECT_ID": "2015-034A", "EPOCH": "2025-12-27T02:46:21.982080", "MEAN_MOTION": 1.00271993, "ECCENTRICITY": 6.56e-05, "INCLINATION": 2.7724, "RA_OF_ASC_NODE": 71.9627, "ARG_OF_PERICENTER": 136.5794, "MEAN_ANOMALY": 298.0847, "EPHEMERIS_TYPE": 0, "CLASSIFICATION_TYPE": "U", "NORAD_CAT_ID": 40732, "ELEMENT_SET_NO": 999, "REV_AT_EPOCH": 549, "BSTAR": 0, "MEAN_MOTION_DOT": 8.2e-07, "MEAN_MOTION_DDOT": 0}, "tle": {"line1": "1 40732U 15034A   25361.11553220  .00000082  00000+0  00000+0 0  9993", "line2": "2 40732   2.7724  71.9627 0000656 136.5794 298.0847  1.00271993  5492"}}, "geometry": {"type": "Point", "coordinates": [-83.80220237353535, -1.157243118951291]}}, {"type": "Feature", "properties": {"norad_id": 41105, "name": "ELEKTRO-L 2", "group": "weather", "lat": -0.0015535831485250097, "lon": -107.45494366844278, "alt_km": 35772.281127141105, "timestamp": "2025-12-27T11:23:19.520533+00:00", "meta": {"OBJECT_NAME": "ELEKTRO-L 2", "OBJECT_ID": "2015-074A", "EPOCH": "2025-12-27T00:56:52.317888", "MEAN_MOTION": 1.00271623, "ECCENTRICITY": 0.000369, "INCLINATION": 6.2593, "RA_OF_ASC_NODE": 72.658, "ARG_OF_PERICENTER": 207.3207, "MEAN_ANOMALY": 175.545, "EPHEMERIS_TYPE": 0, "CLASSIFICATION_TYPE": "U", "NORAD_CAT_ID": 41105, "ELEMENT_SET_NO": 999, "REV_AT_EPOCH": 3678, "BSTAR": 0, "MEAN_MOTION_DOT": -9.7e-07, "MEAN_MOTION_DDOT": 0}, "tle": {"line1": "1 41105U 15074A   25361.03949442 -.00000097  00000+0  00000+0 0  9995", "line2": "2 41105   6.2593  72.6580 0003690 207.3207 175.5450  1.00271623 36788"}}, "geometry": {"type": "Point", "coordinates": [-107.45494366844278, -0.0015535831485250097]}}, {"type": "Feature", "properties": {"norad_id": 41752, "name": "INSAT-3DR", "group": "weather", "lat": -0.04656913734816328, "lon": -18.826981702470437, "alt_km": 35764.22001967229, "timestamp": "2025-12-27T11:23:19.520545+00:00", "meta": {"OBJECT_NAME": "INSAT-3DR", "OBJECT_ID": "2016-054A", "EPOCH": "2025-12-27T01:22:12.391968", "MEAN_MOTION": 1.00271416, "ECCENTRICITY": 0.0014402, "INCLINATION": 0.042, "RA_OF_ASC_NODE": 85.462, "ARG_OF_PERICENTER": 186.7324, "MEAN_ANOMALY": 278.1407, "EPHEMERIS_TYPE": 0, "CLASSIFICATION_TYPE": "U", "NORAD_CAT_ID": 41752, "ELEMENT_SET_NO": 999, "REV_AT_EPOCH": 3409, "BSTAR": 0, "MEAN_MOTION_DOT": -5.5e-07, "MEAN_MOTION_DDOT": 0}, "tle": {"line1": "1 41752U 16054A   25361.05708787 -.00000055  00000+0  00000+0 0  9993", "line2": "2 41752   0.0420  85.4620 0014402 186.7324 278.1407  1.00271416 34091"}}, "geometry": {"type": "Point", "coordinates": [-18.826981702470437, -0.04656913734816328]}}]}